[ {"name": "STARLINK-5330", "line1": "1 55282U 23010P   26192.75332850 -.00000210  00000+0 -97856-5 0  9995", "line2": "2 55282  69.9987  91.4762 0003139 268.5799  91.5001 14.98329188191362"}, {"name": "STARLINK-5317", "line1": "1 55283U 23010Q   26192.77403583 -.00001093  00000+0 -83834-4 0  9990", "line2": "2 55283  69.9993  91.5514 0002814 271.2771  88.8066 14.98329532191369"}, {"name": "STARLINK-5337", "line1": "1 55284U 23010R   26192.75317184 -.00001255  00000+0 -97456-4 0  9995", "line2": "2 55284  69.9986  91.4752 0003295 265.7304  94.3478 14.98320744191353"}, {"name": "STARLINK-5332", "line1": "1 55285U 23010S   26192.79459404 -.00000029  00000+0  53921-5 0  9999", "line2": "2 55285  69.9990  51.4641 0003070 268.4588  91.6219 14.98331126193235"}, {"name": "STARLINK-5338", "line1": "1 55286U 23010T   26192.76963580  .00000237  00000+0  27619-4 0  9996", "line2": "2 55286  69.9998  71.6688 0002916 259.9751 100.1079 14.98332790191858"}, {"name": "STARLINK-5341", "line1": "1 55287U 23010U   26192.77775206  .00000015  00000+0  90257-5 0  9997", "line2": "2 55287  69.9993  51.7327 0002928 269.4983  90.5840 14.98333121192341"}, {"name": "STARLINK-5311", "line1": "1 55288U 23010V   26192.75728385  .00001094  00000+0  99436-4 0  9997", "line2": "2 55288  69.9991  71.6225 0002888 268.0452  92.0376 14.98337235191855"}, {"name": "STARLINK-5320", "line1": "1 55289U 23010W   26192.77381365 -.00000267  00000+0 -14618-4 0  9995", "line2": "2 55289  69.9992  71.6815 0001540 274.6632  85.4351 14.98342516191856"}, {"name": "STARLINK-5266", "line1": "1 55290U 23010X   26192.76546513  .00000963  00000+0  88507-4 0  9993", "line2": "2 55290  69.9992  71.6521 0002985 265.6857  94.3961 14.98333214191856"}, {"name": "STARLINK-5327", "line1": "1 55291U 23010Y   26192.78216449  .00000344  00000+0  36653-4 0  9996", "line2": "2 55291  69.9997  71.7106 0002719 276.2375  83.8474 14.98333307191855"}, {"name": "STARLINK-5325", "line1": "1 55292U 23010Z   26192.75294105  .00000032  00000+0  10494-4 0  9998", "line2": "2 55292  69.9991  71.6073 0002621 266.9643  93.1216 14.98332468191853"}, {"name": "STARLINK-5287", "line1": "1 55293U 23010AA  26192.75712107 -.00000544  00000+0 -37795-4 0  9999", "line2": "2 55293  69.9990  71.6226 0002952 260.7577  99.3248 14.98326346191859"}, {"name": "STARLINK-5286", "line1": "1 55294U 23010AB  26192.76151787  .00000106  00000+0  16710-4 0  9998", "line2": "2 55294  69.9996  91.5037 0002926 263.6169  96.4656 14.98330863191363"}, {"name": "STARLINK-5293", "line1": "1 55295U 23010AC  26192.80325137  .00000135  00000+0  19107-4 0  9991", "line2": "2 55295  70.0004  91.6566 0003069 260.2816  99.7996 14.98330483191378"}, {"name": "STARLINK-5285", "line1": "1 55296U 23010AD  26192.74039577  .00002294  00000+0  19993-3 0  9995", "line2": "2 55296  70.0004  71.5660 0002355 270.6342  89.4547 14.98349971192738"}, {"name": "STARLINK-5284", "line1": "1 55297U 23010AE  26192.74878386  .00001635  00000+0  14482-3 0  9991", "line2": "2 55297  69.9973  71.5886 0003026 278.1847  81.8969 14.98315538191858"}, {"name": "STARLINK-5270", "line1": "1 55299U 23010AG  26192.73625069  .00000238  00000+0  27712-4 0  9999", "line2": "2 55299  69.9994  71.5516 0002919 279.7797  80.3033 14.98329434192738"}, {"name": "STARLINK-5308", "line1": "1 55300U 23010AH  26192.79882834 -.00000623  00000+0 -44432-4 0  9991", "line2": "2 55300  69.9976  71.3698 0002309 254.9291 105.1613 14.98336504191866"}, {"name": "STARLINK-5321", "line1": "1 55302U 23010AK  26192.74459155 -.00000803  00000+0 -59509-4 0  9995", "line2": "2 55302  69.9976  71.5750 0003017 265.0743  95.0071 14.98332730191852"}, {"name": "STARLINK-5322", "line1": "1 55303U 23010AL  26192.74898653 -.00001786  00000+0 -14199-3 0  9992", "line2": "2 55303  69.9993  91.4611 0002881 270.7174  89.3655 14.98320729191363"}, {"name": "STARLINK-5318", "line1": "1 55304U 23010AM  26192.79465713  .00000776  00000+0  72854-4 0  9994", "line2": "2 55304  69.9990  71.3511 0003206 265.9206  94.1587 14.98336379191862"}, {"name": "STARLINK-5316", "line1": "1 55305U 23010AN  26192.79051222  .00000590  00000+0  57230-4 0  9996", "line2": "2 55305  69.9992  71.7423 0002795 265.9926  94.0914 14.98334685191863"}, {"name": "STARLINK-5295", "line1": "1 55306U 23010AP  26192.76106855  .00000412  00000+0  42360-4 0  9998", "line2": "2 55306  69.9988  51.7617 0003200 268.4995  91.5798 14.98317928192356"}, {"name": "STARLINK-5288", "line1": "1 55307U 23010AQ  26192.76523984  .00000321  00000+0  34702-4 0  9995", "line2": "2 55307  69.9992  51.7789 0002841 271.3426  88.7407 14.98341510192353"}, {"name": "STARLINK-5315", "line1": "1 55309U 23010AS  26192.78191687  .00001143  00000+0  10354-3 0  9999", "line2": "2 55309  69.9992  51.4341 0002922 275.3639  84.7187 14.98336430192363"}, {"name": "STARLINK-5309", "line1": "1 55310U 23010AT  26192.75271662 -.00000303  00000+0 -17597-4 0  9996", "line2": "2 55310  69.9995  51.7318 0002753 270.1706  89.9137 14.98335212192353"}, {"name": "STARLINK-5312", "line1": "1 55311U 23010AU  26192.75688905 -.00002458  00000+0 -19825-3 0  9997", "line2": "2 55311  69.9989  51.7482 0003438 263.8551  96.2216 14.98336407193220"}, {"name": "STARLINK-5296", "line1": "1 55312U 23010AV  26192.79442556  .00000119  00000+0  17750-4 0  9998", "line2": "2 55312  69.9997  51.3643 0003060 277.6703  82.4108 14.98342092193211"}, {"name": "STARLINK-5313", "line1": "1 55313U 23010AW  26192.74436829 -.00000302  00000+0 -17495-4 0  9992", "line2": "2 55313  69.9997  51.7049 0002591 261.4633  98.6233 14.98336126193227"}, {"name": "STARLINK-5305", "line1": "1 55314U 23010AX  26192.74854063  .00000255  00000+0  29139-4 0  9990", "line2": "2 55314  69.9991  51.7159 0003105 279.1555  80.9252 14.98328314193220"}]