OBJECT_NAME,OBJECT_ID,EPOCH,MEAN_MOTION,ECCENTRICITY,INCLINATION,RA_OF_ASC_NODE,ARG_OF_PERICENTER,MEAN_ANOMALY,EPHEMERIS_TYPE,CLASSIFICATION_TYPE,NORAD_CAT_ID,ELEMENT_SET_NO,REV_AT_EPOCH,BSTAR,MEAN_MOTION_DOT,MEAN_MOTION_DDOT
STARLINK-5330,2023-010P,2026-07-11T18:04:47.582400,14.98329188,.0003139,69.9987,91.4762,268.5799,91.5001,0,U,55282,999,19136,-.9785582E-5,-.21E-5,0
STARLINK-5317,2023-010Q,2026-07-11T18:34:36.695712,14.98329532,.00028149,69.9993,91.5514,271.2771,88.8066,0,U,55283,999,19136,-.8383351E-4,-.1093E-4,0
STARLINK-5337,2023-010R,2026-07-11T18:04:34.046976,14.98320744,.00032952,69.9986,91.4752,265.7304,94.3478,0,U,55284,999,19135,-.9745601E-4,-.1255E-4,0
STARLINK-5332,2023-010S,2026-07-11T19:04:12.925056,14.98331126,.00030706,69.9990,51.4641,268.4588,91.6219,0,U,55285,999,19323,.5392133E-5,-.29E-6,0
STARLINK-5338,2023-010T,2026-07-11T18:28:16.533120,14.98332790,.00029166,69.9998,71.6688,259.9751,100.1079,0,U,55286,999,19185,.27618561E-4,.237E-5,0
STARLINK-5341,2023-010U,2026-07-11T18:39:57.777984,14.98333121,.00029281,69.9993,51.7327,269.4983,90.5840,0,U,55287,999,19234,.9025656E-5,.15E-6,0
STARLINK-5311,2023-010V,2026-07-11T18:10:29.324640,14.98337235,.00028882,69.9991,71.6225,268.0452,92.0376,0,U,55288,999,19185,.99436238E-4,.1094E-4,0
STARLINK-5320,2023-010W,2026-07-11T18:34:17.499360,14.98342516,.00015401,69.9992,71.6815,274.6632,85.4351,0,U,55289,999,19185,-.14618338E-4,-.267E-5,0
STARLINK-5266,2023-010X,2026-07-11T18:22:16.187232,14.98333214,.00029857,69.9992,71.6521,265.6857,94.3961,0,U,55290,999,19185,.88506955E-4,.963E-5,0
STARLINK-5327,2023-010Y,2026-07-11T18:46:19.011936,14.98333307,.00027195,69.9997,71.7106,276.2375,83.8474,0,U,55291,999,19185,.36652845E-4,.344E-5,0
STARLINK-5325,2023-010Z,2026-07-11T18:04:14.106720,14.98332468,.00026218,69.9991,71.6073,266.9643,93.1216,0,U,55292,999,19185,.10494336E-4,.32E-6,0
STARLINK-5287,2023-010AA,2026-07-11T18:10:15.260448,14.98326346,.00029524,69.9990,71.6226,260.7577,99.3248,0,U,55293,999,19185,-.37795064E-4,-.544E-5,0
STARLINK-5286,2023-010AB,2026-07-11T18:16:35.143968,14.98330863,.00029269,69.9996,91.5037,263.6169,96.4656,0,U,55294,999,19136,.16710165E-4,.106E-5,0
STARLINK-5293,2023-010AC,2026-07-11T19:16:40.918368,14.98330483,.00030693,70.0004,91.6566,260.2816,99.7996,0,U,55295,999,19137,.19106909E-4,.135E-5,0
STARLINK-5285,2023-010AD,2026-07-11T17:46:10.194528,14.98349971,.00023556,70.0004,71.5660,270.6342,89.4547,0,U,55296,999,19273,.1999262E-3,.2294E-4,0
STARLINK-5284,2023-010AE,2026-07-11T17:58:14.925504,14.98315538,.00030263,69.9973,71.5886,278.1847,81.8969,0,U,55297,999,19185,.14481719E-3,.1635E-4,0
STARLINK-5270,2023-010AG,2026-07-11T17:40:12.059616,14.98329434,.00029195,69.9994,71.5516,279.7797,80.3033,0,U,55299,999,19273,.2771234E-4,.238E-5,0
STARLINK-5308,2023-010AH,2026-07-11T19:10:18.768576,14.98336504,.00023095,69.9976,71.3698,254.9291,105.1613,0,U,55300,999,19186,-.44431715E-4,-.623E-5,0
STARLINK-5321,2023-010AK,2026-07-11T17:52:12.709920,14.98332730,.0003017,69.9976,71.5750,265.0743,95.0071,0,U,55302,999,19185,-.5950858E-4,-.803E-5,0
STARLINK-5322,2023-010AL,2026-07-11T17:58:32.436192,14.98320729,.00028816,69.9993,91.4611,270.7174,89.3655,0,U,55303,999,19136,-.14198682E-3,-.1786E-4,0
STARLINK-5318,2023-010AM,2026-07-11T19:04:18.376032,14.98336379,.00032063,69.9990,71.3511,265.9206,94.1587,0,U,55304,999,19186,.72854081E-4,.776E-5,0
STARLINK-5316,2023-010AN,2026-07-11T18:58:20.255808,14.98334685,.00027953,69.9992,71.7423,265.9926,94.0914,0,U,55305,999,19186,.57230144E-4,.59E-5,0
STARLINK-5295,2023-010AP,2026-07-11T18:15:56.322720,14.98317928,.00032004,69.9988,51.7617,268.4995,91.5798,0,U,55306,999,19235,.42359936E-4,.412E-5,0
STARLINK-5288,2023-010AQ,2026-07-11T18:21:56.722176,14.98341510,.00028415,69.9992,51.7789,271.3426,88.7407,0,U,55307,999,19235,.34702443E-4,.321E-5,0
STARLINK-5315,2023-010AS,2026-07-11T18:45:57.617568,14.98336430,.00029226,69.9992,51.4341,275.3639,84.7187,0,U,55309,999,19236,.10353643E-3,.1143E-4,0
STARLINK-5309,2023-010AT,2026-07-11T18:03:54.715968,14.98335212,.00027536,69.9995,51.7318,270.1706,89.9137,0,U,55310,999,19235,-.17596504E-4,-.303E-5,0
STARLINK-5312,2023-010AU,2026-07-11T18:09:55.213920,14.98336407,.00034384,69.9989,51.7482,263.8551,96.2216,0,U,55311,999,19322,-.19825495E-3,-.2458E-4,0
STARLINK-5296,2023-010AV,2026-07-11T19:03:58.368384,14.98342092,.000306,69.9997,51.3643,277.6703,82.4108,0,U,55312,999,19321,.17749611E-4,.119E-5,0
STARLINK-5313,2023-010AW,2026-07-11T17:51:53.420256,14.98336126,.00025918,69.9997,51.7049,261.4633,98.6233,0,U,55313,999,19322,-.17495245E-4,-.302E-5,0
STARLINK-5305,2023-010AX,2026-07-11T17:57:53.910432,14.98328314,.00031056,69.9991,51.7159,279.1555,80.9252,0,U,55314,999,19322,.29138835E-4,.255E-5,0
